[{"OBJECT_NAME":"ONEWEB-0186","OBJECT_ID":"2021-031V","EPOCH":"2025-11-05T02:27:36.701568","MEAN_MOTION":13.14503254,"ECCENTRICITY":0.00018707,"INCLINATION":87.9011,"RA_OF_ASC_NODE":334.3302,"ARG_OF_PERICENTER":90.129,"MEAN_ANOMALY":270.0054,"EPHEMERIS_TYPE":0,"CLASSIFICATION_TYPE":"U","NORAD_CAT_ID":48229,"ELEMENT_SET_NO":999,"REV_AT_EPOCH":21894,"BSTAR":-0.0004848108,"MEAN_MOTION_DOT":-1.67e-6,"MEAN_MOTION_DDOT":0},{"OBJECT_NAME":"ONEWEB-0181","OBJECT_ID":"2021-031W","EPOCH":"2025-11-05T03:45:14.283648","MEAN_MOTION":13.14503584,"ECCENTRICITY":0.00019679,"INCLINATION":87.8996,"RA_OF_ASC_NODE":334.3804,"ARG_OF_PERICENTER":90.6487,"MEAN_ANOMALY":269.4868,"EPHEMERIS_TYPE":0,"CLASSIFICATION_TYPE":"U","NORAD_CAT_ID":48230,"ELEMENT_SET_NO":999,"REV_AT_EPOCH":21880,"BSTAR":-8.582057e-5,"MEAN_MOTION_DOT":-1.9e-7,"MEAN_MOTION_DDOT":0},{"OBJECT_NAME":"ONEWEB-0188","OBJECT_ID":"2021-031X","EPOCH":"2025-11-05T02:50:26.323008","MEAN_MOTION":13.14501696,"ECCENTRICITY":0.00018184,"INCLINATION":87.8996,"RA_OF_ASC_NODE":334.3839,"ARG_OF_PERICENTER":92.9458,"MEAN_ANOMALY":267.188,"EPHEMERIS_TYPE":0,"CLASSIFICATION_TYPE":"U","NORAD_CAT_ID":48231,"ELEMENT_SET_NO":999,"REV_AT_EPOCH":21870,"BSTAR":-0.00019012566,"MEAN_MOTION_DOT":-5.8e-7,"MEAN_MOTION_DDOT":0},{"OBJECT_NAME":"ONEWEB-0220","OBJECT_ID":"2021-031Y","EPOCH":"2025-11-05T03:47:32.036352","MEAN_MOTION":13.14501212,"ECCENTRICITY":0.00018233,"INCLINATION":87.9012,"RA_OF_ASC_NODE":334.3192,"ARG_OF_PERICENTER":86.0373,"MEAN_ANOMALY":274.0965,"EPHEMERIS_TYPE":0,"CLASSIFICATION_TYPE":"U","NORAD_CAT_ID":48232,"ELEMENT_SET_NO":999,"REV_AT_EPOCH":21897,"BSTAR":-8.7654943e-5,"MEAN_MOTION_DOT":-2.0e-7,"MEAN_MOTION_DDOT":0},{"OBJECT_NAME":"ONEWEB-0165","OBJECT_ID":"2021-031Z","EPOCH":"2025-11-05T02:39:00.917856","MEAN_MOTION":13.14504284,"ECCENTRICITY":0.00019411,"INCLINATION":87.8994,"RA_OF_ASC_NODE":334.3613,"ARG_OF_PERICENTER":88.3779,"MEAN_ANOMALY":271.7573,"EPHEMERIS_TYPE":0,"CLASSIFICATION_TYPE":"U","NORAD_CAT_ID":48233,"ELEMENT_SET_NO":999,"REV_AT_EPOCH":21892,"BSTAR":-0.00022716583,"MEAN_MOTION_DOT":-7.1e-7,"MEAN_MOTION_DDOT":0},{"OBJECT_NAME":"ONEWEB-0199","OBJECT_ID":"2021-031AA","EPOCH":"2025-11-05T02:16:11.256672","MEAN_MOTION":13.14501695,"ECCENTRICITY":0.00018256,"INCLINATION":87.9005,"RA_OF_ASC_NODE":334.3353,"ARG_OF_PERICENTER":98.8024,"MEAN_ANOMALY":261.3312,"EPHEMERIS_TYPE":0,"CLASSIFICATION_TYPE":"U","NORAD_CAT_ID":48234,"ELEMENT_SET_NO":999,"REV_AT_EPOCH":21882,"BSTAR":-0.00027921442,"MEAN_MOTION_DOT":-9.1e-7,"MEAN_MOTION_DDOT":0},{"OBJECT_NAME":"ONEWEB-0203","OBJECT_ID":"2021-031AB","EPOCH":"2025-11-05T03:52:04.922976","MEAN_MOTION":13.14503818,"ECCENTRICITY":0.00020622,"INCLINATION":87.9005,"RA_OF_ASC_NODE":334.3232,"ARG_OF_PERICENTER":99.005,"MEAN_ANOMALY":261.1313,"EPHEMERIS_TYPE":0,"CLASSIFICATION_TYPE":"U","NORAD_CAT_ID":48235,"ELEMENT_SET_NO":999,"REV_AT_EPOCH":21884,"BSTAR":-8.4507997e-5,"MEAN_MOTION_DOT":-1.9e-7,"MEAN_MOTION_DDOT":0},{"OBJECT_NAME":"ONEWEB-0197","OBJECT_ID":"2021-031AC","EPOCH":"2025-11-05T03:15:21.444768","MEAN_MOTION":13.14501402,"ECCENTRICITY":0.00015324,"INCLINATION":87.9003,"RA_OF_ASC_NODE":334.3265,"ARG_OF_PERICENTER":89.1124,"MEAN_ANOMALY":271.0181,"EPHEMERIS_TYPE":0,"CLASSIFICATION_TYPE":"U","NORAD_CAT_ID":48236,"ELEMENT_SET_NO":999,"REV_AT_EPOCH":21875,"BSTAR":0.00062770563,"MEAN_MOTION_DOT":2.45e-6,"MEAN_MOTION_DDOT":0},{"OBJECT_NAME":"ONEWEB-0194","OBJECT_ID":"2021-031AD","EPOCH":"2025-11-05T02:45:51.978816","MEAN_MOTION":13.14504433,"ECCENTRICITY":0.00018708,"INCLINATION":87.9003,"RA_OF_ASC_NODE":334.347,"ARG_OF_PERICENTER":102.1574,"MEAN_ANOMALY":257.9766,"EPHEMERIS_TYPE":0,"CLASSIFICATION_TYPE":"U","NORAD_CAT_ID":48237,"ELEMENT_SET_NO":999,"REV_AT_EPOCH":21892,"BSTAR":-0.00021942413,"MEAN_MOTION_DOT":-6.9e-7,"MEAN_MOTION_DDOT":0},{"OBJECT_NAME":"ONEWEB-0193","OBJECT_ID":"2021-031AE","EPOCH":"2025-11-05T03:08:42.764928","MEAN_MOTION":13.1450168,"ECCENTRICITY":0.00018685,"INCLINATION":87.9,"RA_OF_ASC_NODE":334.34,"ARG_OF_PERICENTER":108.7569,"MEAN_ANOMALY":251.3764,"EPHEMERIS_TYPE":0,"CLASSIFICATION_TYPE":"U","NORAD_CAT_ID":48238,"ELEMENT_SET_NO":999,"REV_AT_EPOCH":21887,"BSTAR":0.00063967992,"MEAN_MOTION_DOT":2.5e-6,"MEAN_MOTION_DDOT":0},{"OBJECT_NAME":"ONEWEB-0191","OBJECT_ID":"2021-031AF","EPOCH":"2025-11-05T03:24:41.307264","MEAN_MOTION":13.14500766,"ECCENTRICITY":0.00018004,"INCLINATION":87.9015,"RA_OF_ASC_NODE":334.324,"ARG_OF_PERICENTER":95.3679,"MEAN_ANOMALY":264.7656,"EPHEMERIS_TYPE":0,"CLASSIFICATION_TYPE":"U","NORAD_CAT_ID":48239,"ELEMENT_SET_NO":999,"REV_AT_EPOCH":21873,"BSTAR":0.00052121875,"MEAN_MOTION_DOT":2.06e-6,"MEAN_MOTION_DDOT":0},{"OBJECT_NAME":"ONEWEB-0195","OBJECT_ID":"2021-031AG","EPOCH":"2025-11-05T02:51:35.671968","MEAN_MOTION":13.14503496,"ECCENTRICITY":0.00022026,"INCLINATION":87.901,"RA_OF_ASC_NODE":334.3241,"ARG_OF_PERICENTER":88.5499,"MEAN_ANOMALY":271.5883,"EPHEMERIS_TYPE":0,"CLASSIFICATION_TYPE":"U","NORAD_CAT_ID":48240,"ELEMENT_SET_NO":999,"REV_AT_EPOCH":21871,"BSTAR":-0.00014178179,"MEAN_MOTION_DOT":-4.0e-7,"MEAN_MOTION_DDOT":0},{"OBJECT_NAME":"ONEWEB-0201","OBJECT_ID":"2021-031AH","EPOCH":"2025-11-05T02:34:38.565984","MEAN_MOTION":13.14504319,"ECCENTRICITY":0.00017604,"INCLINATION":87.8998,"RA_OF_ASC_NODE":334.3722,"ARG_OF_PERICENTER":83.9148,"MEAN_ANOMALY":276.2182,"EPHEMERIS_TYPE":0,"CLASSIFICATION_TYPE":"U","NORAD_CAT_ID":48241,"ELEMENT_SET_NO":999,"REV_AT_EPOCH":21894,"BSTAR":-0.0006484914,"MEAN_MOTION_DOT":-2.28e-6,"MEAN_MOTION_DDOT":0},{"OBJECT_NAME":"ONEWEB-0207","OBJECT_ID":"2021-031AJ","EPOCH":"2025-11-05T02:05:53.846592","MEAN_MOTION":13.14504197,"ECCENTRICITY":0.00017059,"INCLINATION":87.9004,"RA_OF_ASC_NODE":334.3335,"ARG_OF_PERICENTER":88.0073,"MEAN_ANOMALY":272.1253,"EPHEMERIS_TYPE":0,"CLASSIFICATION_TYPE":"U","NORAD_CAT_ID":48242,"ELEMENT_SET_NO":999,"REV_AT_EPOCH":21885,"BSTAR":-0.0001496762,"MEAN_MOTION_DOT":-4.3e-7,"MEAN_MOTION_DDOT":0},{"OBJECT_NAME":"ONEWEB-0208","OBJECT_ID":"2021-031AK","EPOCH":"2025-11-05T03:29:15.660960","MEAN_MOTION":13.14478006,"ECCENTRICITY":0.00013785,"INCLINATION":87.9015,"RA_OF_ASC_NODE":334.3383,"ARG_OF_PERICENTER":107.9585,"MEAN_ANOMALY":252.1696,"EPHEMERIS_TYPE":0,"CLASSIFICATION_TYPE":"U","NORAD_CAT_ID":48243,"ELEMENT_SET_NO":999,"REV_AT_EPOCH":21887,"BSTAR":0.012560302,"MEAN_MOTION_DOT":4.67e-5,"MEAN_MOTION_DDOT":0},{"OBJECT_NAME":"ONEWEB-0200","OBJECT_ID":"2021-031AL","EPOCH":"2025-11-05T02:36:42.770304","MEAN_MOTION":13.14500749,"ECCENTRICITY":0.00019566,"INCLINATION":87.9003,"RA_OF_ASC_NODE":334.3351,"ARG_OF_PERICENTER":91.37,"MEAN_ANOMALY":268.7654,"EPHEMERIS_TYPE":0,"CLASSIFICATION_TYPE":"U","NORAD_CAT_ID":48244,"ELEMENT_SET_NO":999,"REV_AT_EPOCH":21879,"BSTAR":-0.00029528931,"MEAN_MOTION_DOT":-9.7e-7,"MEAN_MOTION_DDOT":0}]
