ONEWEB-0186             
1 48229U 21031V   25309.10250812 -.00000167  00000+0 -48481-3 0  9993
2 48229  87.9011 334.3302 0001870  90.1290 270.0054 13.14503254218948
ONEWEB-0181             
1 48230U 21031W   25309.15641532 -.00000019  00000+0 -85821-4 0  9999
2 48230  87.8996 334.3804 0001967  90.6487 269.4868 13.14503584218804
ONEWEB-0188             
1 48231U 21031X   25309.11836022 -.00000058  00000+0 -19013-3 0  9998
2 48231  87.8996 334.3839 0001818  92.9458 267.1880 13.14501696218701
ONEWEB-0220             
1 48232U 21031Y   25309.15800968 -.00000020  00000+0 -87655-4 0  9990
2 48232  87.9012 334.3192 0001823  86.0373 274.0965 13.14501212218974
ONEWEB-0165             
1 48233U 21031Z   25309.11042729 -.00000071  00000+0 -22717-3 0  9993
2 48233  87.8994 334.3613 0001941  88.3779 271.7573 13.14504284218923
ONEWEB-0199             
1 48234U 21031AA  25309.09457473 -.00000091  00000+0 -27921-3 0  9991
2 48234  87.9005 334.3353 0001825  98.8024 261.3312 13.14501695218827
ONEWEB-0203             
1 48235U 21031AB  25309.16116809 -.00000019  00000+0 -84508-4 0  9990
2 48235  87.9005 334.3232 0002062  99.0050 261.1313 13.14503818218840
ONEWEB-0197             
1 48236U 21031AC  25309.13566487  .00000245  00000+0  62771-3 0  9995
2 48236  87.9003 334.3265 0001532  89.1124 271.0181 13.14501402218758
ONEWEB-0194             
1 48237U 21031AD  25309.11518494 -.00000069  00000+0 -21942-3 0  9990
2 48237  87.9003 334.3470 0001870 102.1574 257.9766 13.14504433218925
ONEWEB-0193             
1 48238U 21031AE  25309.13105052  .00000250  00000+0  63968-3 0  9999
2 48238  87.9000 334.3400 0001868 108.7569 251.3764 13.14501680218870
ONEWEB-0191             
1 48239U 21031AF  25309.14214476  .00000206  00000+0  52122-3 0  9993
2 48239  87.9015 334.3240 0001800  95.3679 264.7656 13.14500766218735
ONEWEB-0195             
1 48240U 21031AG  25309.11916287 -.00000040  00000+0 -14178-3 0  9998
2 48240  87.9010 334.3241 0002202  88.5499 271.5883 13.14503496218713
ONEWEB-0201             
1 48241U 21031AH  25309.10739081 -.00000228  00000+0 -64849-3 0  9991
2 48241  87.8998 334.3722 0001760  83.9148 276.2182 13.14504319218944
ONEWEB-0207             
1 48242U 21031AJ  25309.08742878 -.00000043  00000+0 -14968-3 0  9999
2 48242  87.9004 334.3335 0001705  88.0073 272.1253 13.14504197218854
ONEWEB-0208             
1 48243U 21031AK  25309.14532015  .00004670  00000+0  12560-1 0  9999
2 48243  87.9015 334.3383 0001378 107.9585 252.1696 13.14478006218875
ONEWEB-0200             
1 48244U 21031AL  25309.10882836 -.00000097  00000+0 -29529-3 0  9991
2 48244  87.9003 334.3351 0001956  91.3700 268.7654 13.14500749218793
